GLOBALSTAR M024         
1 25883U 99043A   24348.73981640 -.00000002  00000+0  22127-2 0  9998
2 25883  52.0026  79.0537 0002280 142.4693  20.6546 11.10162525 94296
GLOBALSTAR M027         
1 25884U 99043B   24348.49293212 -.00000106  00000+0 -15898-2 0  9996
2 25884  52.0172 152.3325 0022120  54.0645 306.2196 11.04371396120722
GLOBALSTAR M054         
1 25885U 99043C   24349.15348969  .00000019  00000+0  22957-2 0  9996
2 25885  52.0159 309.2147 0005690 222.6542 150.4817 11.39208751 98292
GLOBALSTAR M053         
1 25886U 99043D   24348.48362319 -.00000050  00000+0  53649-3 0  9996
2 25886  51.9975 247.6110 0003982 110.5714  60.0152 11.27661035 98495
GLOBALSTAR M058         
1 25907U 99049A   24348.75688246 -.00000140  00000+0 -74599-3 0  9994
2 25907  51.9933 244.3210 0001108 311.9450  48.1290 11.93191543130616
GLOBALSTAR M050         
1 25908U 99049B   24349.13348979 -.00000101  00000+0 -14065-3 0  9993
2 25908  51.9992 264.8167 0009897  25.8123 112.4803 12.07446192130569
GLOBALSTAR M033         
1 25909U 99049C   24348.57911870 -.00000044  00000+0  45476-3 0  9992
2 25909  51.9884 150.9889 0011757 237.4679 122.5032 12.20292999513088
GLOBALSTAR M055         
1 25910U 99049D   24348.72848052 -.00000059  00000+0  30469-3 0  9994
2 25910  51.9986 170.3446 0008278 104.6385 255.5385 12.29416969145691
